COSMOS 2547             
1 46805U 20075A   26065.64518105  .00000026  00000+0  00000+0 0  9992
2 46805  64.5994 195.8945 0006875 230.4824 129.4314  2.13100263 41728
GPS BIII-4              
1 46826U 20078A   26064.79964802  .00000012  00000+0  00000+0 0  9997
2 46826  54.0013 214.9691 0068278 204.3383 325.7195  2.00565559 39435
GSAT0223 (GALILEO 27)   
1 49809U 21116A   26048.03988929 -.00000078  00000+0  00000+0 0  9993
2 49809  57.2005 344.9238 0002865 278.1950 264.6358  1.70475508 26130
GSAT0224 (GALILEO 28)   
1 49810U 21116B   26064.29072237 -.00000105  00000+0  00000+0 0  9998
2 49810  57.1948 344.4822 0001942 295.2728 253.6293  1.70475760 26438
GOES 18                 
1 51850U 22021A   26066.14628090  .00000094  00000+0  00000+0 0  9997
2 51850   0.0304  62.9266 0000799 346.4918  31.0921  1.00273288  5562
COSMOS 2557 (706K)      
1 52984U 22075A   26063.93321719 -.00000057  00000+0  00000+0 0  9997
2 52984  64.3588 318.1599 0011575 283.5582  76.3723  2.13101614 28492
METEOSAT-12 (MTG-I1)    
1 54743U 22170C   26065.91225401 -.00000011  00000+0  00000+0 0  9999
2 54743   0.7035  21.7653 0001992 288.6085 182.3468  1.00270067 11953
METEOR-M2 3             
1 57166U 23091A   26066.21787179  .00000007  00000+0  21996-4 0  9999
2 57166  98.6219 123.2238 0005083 104.8277 255.3465 14.24037328140007
COSMOS 2569 (703K)      
1 57517U 23114A   26063.60906547  .00000011  00000+0  00000+0 0  9990
2 57517  65.2420  76.1460 0012898 291.6250  68.2783  2.13103963 20030
METEOR-M2 4             
1 59051U 24039A   26066.18714271  .00000070  00000+0  50817-4 0  9990
2 59051  98.6904  26.8302 0008135 102.5879 257.6209 14.22416650104768
GSAT0225 (GALILEO 29)   
1 59598U 24079A   26064.58030672  .00000007  00000+0  00000+0 0  9992
2 59598  55.0507 103.9743 0002603 257.7426 101.8321  1.70474989 11547
GSAT0227 (GALILEO 30)   
1 59600U 24079C   26062.41821347  .00000012  00000+0  00000+0 0  9999
2 59600  55.0440 104.0338 0000359  68.5105 291.5792  1.70474834 11567
GSAT0232 (GALILEO 32)   
1 61182U 24167A   26048.66150565  .00000069  00000+0  00000+0 0  9995
2 61182  55.2225 224.5881 0003600 296.6314 116.1306  1.70443939  8265
GSAT0226 (GALILEO 31)   
1 61183U 24167B   26063.09230740  .00000011  00000+0  00000+0 0  9991
2 61183  55.2176 224.2005 0001588 128.6581 232.0353  1.70474186  9066
GSAT0233 (GALILEO 33)   
1 67160U 25302A   26044.50000000 -.00000008  00000+0  00000+0 0  9990
2 67160  54.3935 105.2952 0003011 207.0582 359.4109  1.70474578    20
GSAT0234 (GALILEO 34)   
1 67162U 25302C   26044.50000000 -.00000008  00000+0  00000+0 0  9992
2 67162  54.3967 105.2938 0003081 266.8423 119.7309  1.70475065   127
